{"fetched_at":"2026-07-14T06:34:36.382Z","source":"https://celestrak.org/NORAD/elements/gp.php?NAME=CAPELLA&FORMAT=JSON","constellation":"capella","records":[{"OBJECT_NAME":"CAPELLA-11 (ACADIA-1)","OBJECT_ID":"2023-126A","EPOCH":"2026-07-13T02:25:45.090048","CLASSIFICATION_TYPE":"U","MEAN_MOTION":14.84908624,"ECCENTRICITY":0.000212,"INCLINATION":53.0082,"RA_OF_ASC_NODE":72.394,"ARG_OF_PERICENTER":123.6112,"MEAN_ANOMALY":236.507,"EPHEMERIS_TYPE":0,"NORAD_CAT_ID":57693,"ELEMENT_SET_NO":999,"REV_AT_EPOCH":15597,"BSTAR":0.00028325,"MEAN_MOTION_DOT":0.00002203,"MEAN_MOTION_DDOT":0},{"OBJECT_NAME":"CAPELLA-14 (ACADIA-4)","OBJECT_ID":"2024-066C","EPOCH":"2026-07-13T05:57:27.324288","CLASSIFICATION_TYPE":"U","MEAN_MOTION":15.08425491,"ECCENTRICITY":0.0000749,"INCLINATION":45.6044,"RA_OF_ASC_NODE":118.0658,"ARG_OF_PERICENTER":18.4375,"MEAN_ANOMALY":341.6537,"EPHEMERIS_TYPE":0,"NORAD_CAT_ID":59444,"ELEMENT_SET_NO":999,"REV_AT_EPOCH":11642,"BSTAR":0.00045541,"MEAN_MOTION_DOT":0.00006954,"MEAN_MOTION_DDOT":0},{"OBJECT_NAME":"CAPELLA-13 (ACADIA-3)","OBJECT_ID":"2024-142A","EPOCH":"2026-07-13T16:52:54.651648","CLASSIFICATION_TYPE":"U","MEAN_MOTION":14.87654542,"ECCENTRICITY":0.0001344,"INCLINATION":53.0057,"RA_OF_ASC_NODE":301.8247,"ARG_OF_PERICENTER":91.2779,"MEAN_ANOMALY":268.8355,"EPHEMERIS_TYPE":0,"NORAD_CAT_ID":60419,"ELEMENT_SET_NO":999,"REV_AT_EPOCH":10435,"BSTAR":0.00027894,"MEAN_MOTION_DOT":0.00002327,"MEAN_MOTION_DDOT":0},{"OBJECT_NAME":"CAPELLA-15 (ACADIA-5)","OBJECT_ID":"2024-149CE","EPOCH":"2026-07-13T19:21:10.978848","CLASSIFICATION_TYPE":"U","MEAN_MOTION":14.92406856,"ECCENTRICITY":0.000454,"INCLINATION":97.6722,"RA_OF_ASC_NODE":267.0506,"ARG_OF_PERICENTER":1.1671,"MEAN_ANOMALY":358.9559,"EPHEMERIS_TYPE":0,"NORAD_CAT_ID":60544,"ELEMENT_SET_NO":999,"REV_AT_EPOCH":10382,"BSTAR":0.00022368,"MEAN_MOTION_DOT":0.00002236,"MEAN_MOTION_DDOT":0},{"OBJECT_NAME":"CAPELLA-17 (ACADIA-7)","OBJECT_ID":"2025-135BH","EPOCH":"2026-07-13T20:06:35.295264","CLASSIFICATION_TYPE":"U","MEAN_MOTION":14.91611381,"ECCENTRICITY":0.0004053,"INCLINATION":97.7707,"RA_OF_ASC_NODE":308.0665,"ARG_OF_PERICENTER":255.8212,"MEAN_ANOMALY":104.2557,"EPHEMERIS_TYPE":0,"NORAD_CAT_ID":64583,"ELEMENT_SET_NO":999,"REV_AT_EPOCH":5782,"BSTAR":0.00031388,"MEAN_MOTION_DOT":0.00003095,"MEAN_MOTION_DDOT":0},{"OBJECT_NAME":"CAPELLA-16 (ACADIA-6)","OBJECT_ID":"2025-188D","EPOCH":"2026-07-13T17:56:44.367072","CLASSIFICATION_TYPE":"U","MEAN_MOTION":14.94038741,"ECCENTRICITY":0.0005668,"INCLINATION":97.7379,"RA_OF_ASC_NODE":269.5013,"ARG_OF_PERICENTER":140.3512,"MEAN_ANOMALY":219.8123,"EPHEMERIS_TYPE":0,"NORAD_CAT_ID":65318,"ELEMENT_SET_NO":999,"REV_AT_EPOCH":4788,"BSTAR":0.00033874,"MEAN_MOTION_DOT":0.00003559,"MEAN_MOTION_DDOT":0},{"OBJECT_NAME":"CAPELLA-19 (ACADIA-9)","OBJECT_ID":"2026-004X","EPOCH":"2026-07-13T20:27:32.330592","CLASSIFICATION_TYPE":"U","MEAN_MOTION":14.86654776,"ECCENTRICITY":0.0001597,"INCLINATION":97.8003,"RA_OF_ASC_NODE":192.7444,"ARG_OF_PERICENTER":95.751,"MEAN_ANOMALY":264.3888,"EPHEMERIS_TYPE":0,"NORAD_CAT_ID":67384,"ELEMENT_SET_NO":999,"REV_AT_EPOCH":2723,"BSTAR":0.00030011,"MEAN_MOTION_DOT":0.00002611,"MEAN_MOTION_DDOT":0},{"OBJECT_NAME":"CAPELLA-18 (ACADIA-8)","OBJECT_ID":"2026-004Y","EPOCH":"2026-07-13T20:42:00.624672","CLASSIFICATION_TYPE":"U","MEAN_MOTION":14.86642766,"ECCENTRICITY":0.0001237,"INCLINATION":97.8029,"RA_OF_ASC_NODE":192.906,"ARG_OF_PERICENTER":122.6369,"MEAN_ANOMALY":237.4966,"EPHEMERIS_TYPE":0,"NORAD_CAT_ID":67385,"ELEMENT_SET_NO":999,"REV_AT_EPOCH":2724,"BSTAR":0.000074785,"MEAN_MOTION_DOT":0.0000061,"MEAN_MOTION_DDOT":0},{"OBJECT_NAME":"CAPELLA-20 (ACADIA-10)","OBJECT_ID":"2026-067BX","EPOCH":"2026-07-13T20:33:59.069952","CLASSIFICATION_TYPE":"U","MEAN_MOTION":14.91676167,"ECCENTRICITY":0.0000926,"INCLINATION":97.7585,"RA_OF_ASC_NODE":152.7276,"ARG_OF_PERICENTER":146.6185,"MEAN_ANOMALY":213.5093,"EPHEMERIS_TYPE":0,"NORAD_CAT_ID":68485,"ELEMENT_SET_NO":999,"REV_AT_EPOCH":1570,"BSTAR":0.0002949,"MEAN_MOTION_DOT":0.0000291,"MEAN_MOTION_DDOT":0}]}
